{
  "norad_id": 52847,
  "name": "STARLINK-4206",
  "history": [
    {
      "epoch": "2026-03-28T22:09:01.175328Z",
      "apogee_km": 540.6812109964267,
      "perigee_km": 538.7926314159376,
      "latitude_deg": 3.658553729117517e-05,
      "longitude_deg": 149.1915124828539,
      "height_km": 540.6341134994456,
      "semi_major_axis_km": 6917.873921206182,
      "eccentricity": 0.0001365,
      "inclination_deg": 53.2171,
      "raan_deg": 307.7828,
      "arg_perigee_deg": 90.0928,
      "mean_anomaly_deg": 270.0221,
      "mean_motion_rev_day": 15.08842116
    },
    {
      "epoch": "2026-03-30T13:53:39.530400Z",
      "apogee_km": 540.652751247886,
      "perigee_km": 538.8225583292142,
      "latitude_deg": -5.229306350050641e-05,
      "longitude_deg": -96.03549282429455,
      "height_km": 540.612209151349,
      "semi_major_axis_km": 6917.874654788549,
      "eccentricity": 0.00013228,
      "inclination_deg": 53.2159,
      "raan_deg": 300.3479,
      "arg_perigee_deg": 88.6817,
      "mean_anomaly_deg": 271.4326,
      "mean_motion_rev_day": 15.08841876
    },
    {
      "epoch": "2026-03-30T20:15:12.028608Z",
      "apogee_km": 540.6435404063504,
      "perigee_km": 538.8219269480787,
      "latitude_deg": 2.496285930898087e-06,
      "longitude_deg": 167.12808305051158,
      "height_km": 540.6476925021301,
      "semi_major_axis_km": 6917.869733677214,
      "eccentricity": 0.00013166,
      "inclination_deg": 53.2169,
      "raan_deg": 299.158,
      "arg_perigee_deg": 91.2107,
      "mean_anomaly_deg": 268.9036,
      "mean_motion_rev_day": 15.08843486
    },
    {
      "epoch": "2026-03-31T15:19:49.890432Z",
      "apogee_km": 540.671431125952,
      "perigee_km": 538.8257392518235,
      "latitude_deg": 6.1866240438781795e-06,
      "longitude_deg": -123.3814428291641,
      "height_km": 540.671476500705,
      "semi_major_axis_km": 6917.8855851888875,
      "eccentricity": 0.0001334,
      "inclination_deg": 53.2164,
      "raan_deg": 295.5897,
      "arg_perigee_deg": 91.6925,
      "mean_anomaly_deg": 268.422,
      "mean_motion_rev_day": 15.088383
    }
  ]
}